4 4
Demo-4x4 1
1 00001U 00000ABC 00001.00000000  .00000000  00000-0  00000+0 0    04
2 00001  53.0000   0.0000 0000001   0.0000   0.0000 15.07000000    05
Demo-4x4 2
1 00002U 00000ABC 00001.00000000  .00000000  00000-0  00000+0 0    05
2 00002  53.0000   0.0000 0000001   0.0000  90.0000 15.07000000    05
Demo-4x4 3
1 00003U 00000ABC 00001.00000000  .00000000  00000-0  00000+0 0    06
2 00003  53.0000   0.0000 0000001   0.0000 180.0000 15.07000000    06
Demo-4x4 4
1 00004U 00000ABC 00001.00000000  .00000000  00000-0  00000+0 0    07
2 00004  53.0000   0.0000 0000001   0.0000 270.0000 15.07000000    07
Demo-4x4 5
1 00005U 00000ABC 00001.00000000  .00000000  00000-0  00000+0 0    08
2 00005  53.0000  90.0000 0000001   0.0000   0.0000 15.07000000    08
Demo-4x4 6
1 00006U 00000ABC 00001.00000000  .00000000  00000-0  00000+0 0    09
2 00006  53.0000  90.0000 0000001   0.0000  90.0000 15.07000000    08
Demo-4x4 7
1 00007U 00000ABC 00001.00000000  .00000000  00000-0  00000+0 0    00
2 00007  53.0000  90.0000 0000001   0.0000 180.0000 15.07000000    09
Demo-4x4 8
1 00008U 00000ABC 00001.00000000  .00000000  00000-0  00000+0 0    01
2 00008  53.0000  90.0000 0000001   0.0000 270.0000 15.07000000    00
Demo-4x4 9
1 00009U 00000ABC 00001.00000000  .00000000  00000-0  00000+0 0    02
2 00009  53.0000 180.0000 0000001   0.0000   0.0000 15.07000000    02
Demo-4x4 10
1 00010U 00000ABC 00001.00000000  .00000000  00000-0  00000+0 0    04
2 00010  53.0000 180.0000 0000001   0.0000  90.0000 15.07000000    03
Demo-4x4 11
1 00011U 00000ABC 00001.00000000  .00000000  00000-0  00000+0 0    05
2 00011  53.0000 180.0000 0000001   0.0000 180.0000 15.07000000    04
Demo-4x4 12
1 00012U 00000ABC 00001.00000000  .00000000  00000-0  00000+0 0    06
2 00012  53.0000 180.0000 0000001   0.0000 270.0000 15.07000000    05
Demo-4x4 13
1 00013U 00000ABC 00001.00000000  .00000000  00000-0  00000+0 0    07
2 00013  53.0000 270.0000 0000001   0.0000   0.0000 15.07000000    07
Demo-4x4 14
1 00014U 00000ABC 00001.00000000  .00000000  00000-0  00000+0 0    08
2 00014  53.0000 270.0000 0000001   0.0000  90.0000 15.07000000    07
Demo-4x4 15
1 00015U 00000ABC 00001.00000000  .00000000  00000-0  00000+0 0    09
2 00015  53.0000 270.0000 0000001   0.0000 180.0000 15.07000000    08
Demo-4x4 16
1 00016U 00000ABC 00001.00000000  .00000000  00000-0  00000+0 0    00
2 00016  53.0000 270.0000 0000001   0.0000 270.0000 15.07000000    09
